ORBCOMM FM20 [+]        
1 25416U 98046D   23312.43115476  .00002202  00000+0  82204-3 0  9991
2 25416  44.9941  73.7586 0001629 195.1902 164.8896 14.34580689319937
ORBCOMM FM16 [-]        
1 25417U 98046E   23312.56875847  .00002750  00000+0  99922-3 0  9994
2 25417  44.9943  70.0828 0005243 223.0999 136.9437 14.35323348319874
ORBCOMM FM15 [-]        
1 25418U 98046F   23311.65695103  .00003150  00000+0  11430-2 0  9991
2 25418  44.9966  78.0359 0004662 220.1660 139.8843 14.35068355319758
ORBCOMM FM14 [-]        
1 25419U 98046G   23312.48836161  .00003253  00000+0  11758-2 0  9992
2 25419  44.9961  73.4345 0003669 212.0039 268.5502 14.35194414319820
ORBCOMM FM13 [+]        
1 25420U 98046H   23312.42888756  .00002520  00000+0  93257-3 0  9996
2 25420  44.9973  77.6685 0005791 211.1669 148.8835 14.34629008318891
ORBCOMM FM21 [-]        
1 25475U 98053A   23311.88920980  .00001993  00000+0  74774-3 0  9995
2 25475  45.0075 164.3387 0000514 109.5789 250.5114 14.34636979312834
ORBCOMM FM22 [-]        
1 25476U 98053B   23311.85514955  .00002428  00000+0  89340-3 0  9993
2 25476  45.0070 162.4296 0002180 144.1953 215.9041 14.35020155312813
ORBCOMM FM23 [-]        
1 25477U 98053C   23311.29254461  .00002924  00000+0  10743-2 0  9996
2 25477  45.0076 169.5976 0001418 131.4923 228.6045 14.34616516312896
